{
    "links": {
        "self": "http://www.neowsapp.com/rest/v1/neo/3582085?api_key=iIulBulltgU6a56xZRHN4H3l9WmuAYTsLGpBGhQ2"
    },
    "id": "3582085",
    "neo_reference_id": "3582085",
    "name": "(2011 UG10)",
    "designation": "2011 UG10",
    "nasa_jpl_url": "http://ssd.jpl.nasa.gov/sbdb.cgi?sstr=3582085",
    "absolute_magnitude_h": 25.1,
    "estimated_diameter": {
        "kilometers": {
            "estimated_diameter_min": 0.0253837029,
            "estimated_diameter_max": 0.0567596853
        },
        "meters": {
            "estimated_diameter_min": 25.3837029364,
            "estimated_diameter_max": 56.7596852866
        },
        "miles": {
            "estimated_diameter_min": 0.0157726969,
            "estimated_diameter_max": 0.0352688224
        },
        "feet": {
            "estimated_diameter_min": 83.279867942,
            "estimated_diameter_max": 186.2194458756
        }
    },
    "is_potentially_hazardous_asteroid": false,
    "close_approach_data": [
        {
            "close_approach_date": "2011-10-11",
            "close_approach_date_full": "2011-Oct-11 16:25",
            "epoch_date_close_approach": 1318350300000,
            "relative_velocity": {
                "kilometers_per_second": "7.2368612609",
                "kilometers_per_hour": "26052.7005393082",
                "miles_per_hour": "16188.1349545496"
            },
            "miss_distance": {
                "astronomical": "0.0374919537",
                "lunar": "14.5843699893",
                "kilometers": "5608716.415658619",
                "miles": "3485094.7746981822"
            },
            "orbiting_body": "Earth"
        }
    ],
    "orbital_data": {
        "orbit_id": "6",
        "orbit_determination_date": "2017-04-06 08:52:26",
        "first_observation_date": "2011-10-18",
        "last_observation_date": "2011-10-25",
        "data_arc_in_days": 7,
        "observations_used": 26,
        "orbit_uncertainty": "8",
        "minimum_orbit_intersection": ".033528",
        "jupiter_tisserand_invariant": "3.238",
        "epoch_osculation": "2455855.5",
        "eccentricity": ".5794588641510555",
        "semi_major_axis": "2.455284466421357",
        "inclination": "1.743077610756302",
        "ascending_node_longitude": "358.4352409760896",
        "orbital_period": "1405.242096001431",
        "perihelion_distance": "1.032548118341107",
        "perihelion_argument": "15.58819232535008",
        "aphelion_distance": "3.878020814501606",
        "perihelion_time": "2455843.390929185733",
        "mean_anomaly": "3.102145534595258",
        "mean_motion": ".2561836149261169",
        "equinox": "J2000",
        "orbit_class": {
            "orbit_class_type": "AMO",
            "orbit_class_description": "Near-Earth asteroid orbits similar to that of 1221 Amor",
            "orbit_class_range": "1.017 AU < q (perihelion) < 1.3 AU"
        }
    },
    "is_sentry_object": false
}